[Satellite]
VERSION=1.1
NAME=SL-8 R/B
NICKNAME=SL-8 R/B
TLE1=1 11574U 79089B   19317.79263738  .00000038  00000-0  19967-4 0  9994
TLE2=2 11574  74.0721  35.3250 0014724  74.3514 285.9265 14.40733602103811
STATUS=0
